{
  "type": "FeatureCollection",
  "features": [
    {
      "type": "Feature",
      "geometry": { "type": "Polygon", "coordinates": [[[5.7,45.1],[5.8,45.2],[5.6,45.3],[5.7,45.1]]]},
      "properties": {
        "code": "0",
        "name": "France",
        "hasCentroidLatitude": "3",
        "hasCentroidLongitude": "3"
      }
    },
    {
      "type": "Feature",
      "geometry": { "type": "Polygon", "coordinates": [[[3.7,5.1],[5.3,40.2],[3.6,41.3],[3.7,5.1]]]},
      "properties": {
        "code": "1",
        "name":"PACA",
        "sqm": "14"
      }
    }
  ]
}